0 NIMBUS 2 DEB
1 28613U 66040AC  13281.28460455  .00001194  00000-0  18546-2 0  5521
2 28613 100.3995 096.5324 0048133 107.5740 253.3466 13.52791797534081
0 NIMBUS 2 DEB
1 28613U 66040AC  13282.31996190  .00001194  00000-0  18546-2 0  5537
2 28613 100.3928 097.6158 0047651 102.4889 258.1625 13.52800807534225
0 NIMBUS 2 DEB
1 28613U 66040AC  13289.27193928  .00001194  00000-0  18546-2 0  5548
2 28613 100.3966 104.9073 0048046 085.3286 275.5412 13.52826128535169
0 NIMBUS 2 DEB
1 28613U 66040AC  13290.45519507  .00001194  00000-0  18546-2 0  5556
2 28613 100.3999 106.1412 0046693 084.5191 276.1653 13.52829136535322
0 NIMBUS 2 DEB
1 28613U 66040AC  13292.45199702  .00001193  00000-0  18546-2 0  5569
2 28613 100.3853 108.2322 0045067 071.1945 289.4309 13.52836741535591
0 NIMBUS 2 DEB
1 28613U 66040AC  13294.30087872  .00001195  00000-0  18546-2 0  5572
2 28613 100.3793 110.1752 0047914 064.9664 295.7055 13.52848057535843
